OBJECT_NAME,OBJECT_ID,EPOCH,MEAN_MOTION,ECCENTRICITY,INCLINATION,RA_OF_ASC_NODE,ARG_OF_PERICENTER,MEAN_ANOMALY,EPHEMERIS_TYPE,CLASSIFICATION_TYPE,NORAD_CAT_ID,ELEMENT_SET_NO,REV_AT_EPOCH,BSTAR,MEAN_MOTION_DOT,MEAN_MOTION_DDOT
SKYSAT-C1,2016-040C,2026-07-19T07:43:35.078592,15.36787797,.0000501,96.9550,230.3079,204.4557,155.6664,0,U,41601,999,56280,.13026652E-3,.4607E-4,0
LAPAN-A3,2016-040E,2026-07-19T15:04:12.665568,15.33293310,.00082945,97.1508,195.7147,256.5122,103.5197,0,U,41603,999,55978,.51996279E-4,.1599E-4,0
GAOFEN-3,2016-049A,2026-07-19T14:56:00.401568,14.42218724,.00017761,98.4018,207.9194,82.6053,277.5339,0,U,41727,999,52332,-.7083812E-5,-.67E-6,0
SKYSAT-C4,2016-058B,2026-07-19T07:23:02.142816,15.49519373,.00035402,96.9170,220.7540,112.6543,247.5084,0,U,41771,999,55044,.17512998E-3,.9565E-4,0
SKYSAT-C5,2016-058C,2026-07-19T13:58:52.561920,15.33753019,.00030198,97.0451,239.7652,149.7638,210.3781,0,U,41772,999,54871,.11389984E-3,.3644E-4,0
SKYSAT-C2,2016-058D,2026-07-19T01:09:40.843296,15.42733343,.00009173,97.0161,220.9571,329.4128,30.7067,0,U,41773,999,54996,.15928038E-3,.6875E-4,0
SKYSAT-C3,2016-058E,2026-07-19T13:10:50.825568,15.53830199,.00027384,96.8996,230.1770,128.5680,231.5820,0,U,41774,999,55113,.21225841E-3,.13552E-3,0
ALSAT-1B,2016-059C,2026-07-19T14:10:19.055712,14.72296813,.00105961,97.7757,207.9568,117.2709,242.9579,0,U,41785,999,52534,.67323527E-4,.379E-5,0
PATHFINDER 1,2016-059E,2026-07-19T10:50:50.279712,14.67695913,.00299403,97.8179,198.2740,102.8087,257.6467,0,U,41787,999,52444,.55417294E-4,.271E-5,0
SCATSAT 1,2016-059H,2026-07-19T14:34:48.304992,14.79593407,.00555276,98.1175,264.7059,142.5791,217.9307,0,U,41790,999,10638,.84798001E-4,.595E-5,0
GOKTURK 1A,2016-073A,2026-07-19T16:03:20.331648,14.62794117,.00014324,98.1204,94.8278,81.7544,278.3820,0,U,41875,999,51357,-.13808818E-4,-.117E-5,0
RESOURCESAT-2A,2016-074A,2026-07-19T14:05:57.771744,14.21610164,.00021453,98.7513,273.8253,18.2539,341.8714,0,U,41877,999,49890,.88367154E-4,.15E-5,0
CARTOSAT-2D,2017-008A,2026-07-19T15:05:59.421408,15.19306053,.00062795,97.4084,259.3261,126.5690,233.6123,0,U,41948,999,52250,.15352886E-3,.3174E-4,0
SENTINEL-2B,2017-013A,2026-07-19T14:02:35.746080,14.30816940,.00012287,98.5679,274.9009,94.0410,266.0914,0,U,42063,999,48927,.12458499E-3,.283E-5,0
CARTOSAT-2E,2017-036C,2026-07-19T15:31:42.047616,15.19271675,.00036812,97.4250,259.9112,172.7809,187.3479,0,U,42767,999,50307,.85862071E-4,.1743E-4,0
FORMOSAT-5,2017-049A,2026-07-19T12:49:39.150624,14.50908484,.00110298,98.2243,275.1240,350.3355,9.7626,0,U,42920,999,47136,.1752082E-4,.25E-6,0
SENTINEL-5P,2017-064A,2026-07-19T13:19:03.058464,14.19523671,.00011749,98.7929,142.4573,93.7768,266.3542,0,U,42969,999,45415,.22196723E-4,.2E-7,0
SKYSAT-C11,2017-068A,2026-07-19T09:54:24.586848,15.59473968,.00014208,97.4390,350.6929,153.6625,206.4704,0,U,42987,999,48826,.21759549E-3,.17128E-3,0
SKYSAT-C10,2017-068B,2026-07-19T15:03:57.200832,15.35168669,.00015443,97.4545,337.8103,111.2963,248.8445,0,U,42988,999,48733,.16971511E-3,.5711E-4,0
SKYSAT-C9,2017-068C,2026-07-19T14:55:09.554304,15.42277914,.00082713,97.4467,339.0542,30.3241,329.8483,0,U,42989,999,48775,.15923708E-3,.6768E-4,0
SKYSAT-C8,2017-068D,2026-07-19T08:29:42.047232,15.37539120,.0001274,97.4564,337.4574,105.5249,254.6137,0,U,42990,999,48725,.15124E-3,.5485E-4,0
SKYSAT-C7,2017-068E,2026-07-19T08:21:56.823840,15.37488793,.00053212,97.4574,338.4439,7.1365,352.9954,0,U,42991,999,48731,.15041426E-3,.5447E-4,0
SKYSAT-C6,2017-068F,2026-07-19T08:48:54.610272,15.34210892,.00049969,97.4612,338.2974,78.1402,282.0401,0,U,42992,999,48725,.14582097E-3,.4748E-4,0
CARTOSAT-2F,2018-004A,2026-07-19T14:44:02.389920,15.19193666,.00025812,97.4766,259.9287,125.1302,235.0174,0,U,43111,999,47225,.11276613E-3,.2304E-4,0
GAOFEN-1 02,2018-031A,2026-07-19T15:00:13.713408,14.76477167,.00014874,98.0505,263.0588,257.9073,102.1970,0,U,43259,999,44748,.12055885E-3,.788E-5,0
GAOFEN-1 03,2018-031B,2026-07-19T14:28:43.869792,14.76465727,.00020558,98.0500,262.8915,2.2392,357.8827,0,U,43260,999,44747,.4795561E-4,.282E-5,0
GAOFEN-1 04,2018-031D,2026-07-19T15:31:22.840896,14.76440741,.0000969,98.0506,263.1301,50.5470,309.5825,0,U,43262,999,44747,.21257197E-4,.96E-6,0
SENTINEL-3B,2018-039A,2026-07-19T10:47:11.657472,14.26737093,.00012443,98.6233,267.5162,118.7151,241.4154,0,U,43437,999,42872,.33690329E-4,.38E-6,0
GAOFEN-5 01,2018-043A,2026-07-19T11:08:45.296160,14.60624942,.00018453,98.4593,172.7329,23.0424,337.0858,0,U,43461,999,43640,.37542988E-4,.133E-5,0
GAOFEN-6,2018-048A,2026-07-19T14:26:33.057600,14.76387197,.00120454,98.0949,263.3141,69.2927,290.9572,0,U,43484,999,43817,.86805225E-4,.551E-5,0
