SKYSAT-C1               
1 41601U 16040C   26200.32193378  .00004607  00000+0  13027-3 0  9991
2 41601  96.9550 230.3079 0000501 204.4557 155.6664 15.36787797562809
LAPAN-A3                
1 41603U 16040E   26200.62792437  .00001599  00000+0  51996-4 0  9992
2 41603  97.1508 195.7147 0008294 256.5122 103.5197 15.33293310559786
GAOFEN-3                
1 41727U 16049A   26200.62222687 -.00000067  00000+0 -70838-5 0  9991
2 41727  98.4018 207.9194 0001776  82.6053 277.5339 14.42218724523326
SKYSAT-C4               
1 41771U 16058B   26200.30766369  .00009565  00000+0  17513-3 0  9994
2 41771  96.9170 220.7540 0003540 112.6543 247.5084 15.49519373550443
SKYSAT-C5               
1 41772U 16058C   26200.58255280  .00003644  00000+0  11390-3 0  9999
2 41772  97.0451 239.7652 0003019 149.7638 210.3781 15.33753019548718
SKYSAT-C2               
1 41773U 16058D   26200.04838939  .00006875  00000+0  15928-3 0  9999
2 41773  97.0161 220.9571 0000917 329.4128  30.7067 15.42733343549961
SKYSAT-C3               
1 41774U 16058E   26200.54919937  .00013552  00000+0  21226-3 0  9991
2 41774  96.8996 230.1770 0002738 128.5680 231.5820 15.53830199551132
ALSAT-1B                
1 41785U 16059C   26200.59049833  .00000379  00000+0  67324-4 0  9991
2 41785  97.7757 207.9568 0010596 117.2709 242.9579 14.72296813525344
PATHFINDER 1            
1 41787U 16059E   26200.45197083  .00000271  00000+0  55417-4 0  9990
2 41787  97.8179 198.2740 0029940 102.8087 257.6467 14.67695913524448
SCATSAT 1               
1 41790U 16059H   26200.60750353  .00000595  00000+0  84798-4 0  9999
2 41790  98.1175 264.7059 0055527 142.5791 217.9307 14.79593407106386
GOKTURK 1A              
1 41875U 16073A   26200.66898532 -.00000117  00000+0 -13809-4 0  9994
2 41875  98.1204  94.8278 0001432  81.7544 278.3820 14.62794117513571
RESOURCESAT-2A          
1 41877U 16074A   26200.58747421  .00000150  00000+0  88367-4 0  9994
2 41877  98.7513 273.8253 0002145  18.2539 341.8714 14.21610164498906
CARTOSAT-2D             
1 41948U 17008A   26200.62915997  .00003174  00000+0  15353-3 0  9994
2 41948  97.4084 259.3261 0006279 126.5690 233.6123 15.19306053522508
SENTINEL-2B             
1 42063U 17013A   26200.58513595  .00000283  00000+0  12458-3 0  9993
2 42063  98.5679 274.9009 0001228  94.0410 266.0914 14.30816940489277
CARTOSAT-2E             
1 42767U 17036C   26200.64701444  .00001743  00000+0  85862-4 0  9990
2 42767  97.4250 259.9112 0003681 172.7809 187.3479 15.19271675503074
FORMOSAT-5              
1 42920U 17049A   26200.53448091  .00000025  00000+0  17521-4 0  9998
2 42920  98.2243 275.1240 0011029 350.3355   9.7626 14.50908484471369
SENTINEL-5P             
1 42969U 17064A   26200.55489651  .00000002  00000+0  22197-4 0  9997
2 42969  98.7929 142.4573 0001174  93.7768 266.3542 14.19523671454151
SKYSAT-C11              
1 42987U 17068A   26200.41278457  .00017128  00000+0  21760-3 0  9997
2 42987  97.4390 350.6929 0001420 153.6625 206.4704 15.59473968488261
SKYSAT-C10              
1 42988U 17068B   26200.62774538  .00005711  00000+0  16972-3 0  9996
2 42988  97.4545 337.8103 0001544 111.2963 248.8445 15.35168669487339
SKYSAT-C9               
1 42989U 17068C   26200.62163836  .00006768  00000+0  15924-3 0  9999
2 42989  97.4467 339.0542 0008271  30.3241 329.8483 15.42277914487758
SKYSAT-C8               
1 42990U 17068D   26200.35395888  .00005485  00000+0  15124-3 0  9992
2 42990  97.4564 337.4574 0001274 105.5249 254.6137 15.37539120487254
SKYSAT-C7               
1 42991U 17068E   26200.34857435  .00005447  00000+0  15041-3 0  9999
2 42991  97.4574 338.4439 0005321   7.1365 352.9954 15.37488793487315
SKYSAT-C6               
1 42992U 17068F   26200.36729873  .00004748  00000+0  14582-3 0  9998
2 42992  97.4612 338.2974 0004996  78.1402 282.0401 15.34210892487251
CARTOSAT-2F             
1 43111U 18004A   26200.61391655  .00002304  00000+0  11277-3 0  9998
2 43111  97.4766 259.9287 0002581 125.1302 235.0174 15.19193666472252
GAOFEN-1 02             
1 43259U 18031A   26200.62515872  .00000788  00000+0  12056-3 0  9991
2 43259  98.0505 263.0588 0001487 257.9073 102.1970 14.76477167447484
GAOFEN-1 03             
1 43260U 18031B   26200.60328553  .00000282  00000+0  47956-4 0  9996
2 43260  98.0500 262.8915 0002055   2.2392 357.8827 14.76465727447477
GAOFEN-1 04             
1 43262U 18031D   26200.64679214  .00000096  00000+0  21257-4 0  9994
2 43262  98.0506 263.1301 0000969  50.5470 309.5825 14.76440741447474
SENTINEL-3B             
1 43437U 18039A   26200.44944048  .00000038  00000+0  33690-4 0  9994
2 43437  98.6233 267.5162 0001244 118.7151 241.4154 14.26737093428724
GAOFEN-5 01             
1 43461U 18043A   26200.46441315  .00000133  00000+0  37543-4 0  9994
2 43461  98.4593 172.7329 0001845  23.0424 337.0858 14.60624942436401
GAOFEN-6                
1 43484U 18048A   26200.60177150  .00000551  00000+0  86805-4 0  9992
2 43484  98.0949 263.3141 0012045  69.2927 290.9572 14.76387197438171
